[{"OBJECT_NAME":"SES-2","OBJECT_ID":"2011-049A","EPOCH":"2026-03-29T04:03:46.395936","MEAN_MOTION":1.00271842,"ECCENTRICITY":0.0002858,"INCLINATION":0.0515,"RA_OF_ASC_NODE":66.6376,"ARG_OF_PERICENTER":297.1889,"MEAN_ANOMALY":156.683,"EPHEMERIS_TYPE":0,"CLASSIFICATION_TYPE":"U","NORAD_CAT_ID":37809,"ELEMENT_SET_NO":999,"REV_AT_EPOCH":5316,"BSTAR":0,"MEAN_MOTION_DOT":-2.15e-6,"MEAN_MOTION_DDOT":0},{"OBJECT_NAME":"QUETZSAT 1","OBJECT_ID":"2011-054A","EPOCH":"2026-03-29T03:53:25.282752","MEAN_MOTION":1.00272284,"ECCENTRICITY":0.0002778,"INCLINATION":0.0403,"RA_OF_ASC_NODE":46.4677,"ARG_OF_PERICENTER":327.9667,"MEAN_ANOMALY":153.4753,"EPHEMERIS_TYPE":0,"CLASSIFICATION_TYPE":"U","NORAD_CAT_ID":37826,"ELEMENT_SET_NO":999,"REV_AT_EPOCH":4907,"BSTAR":0,"MEAN_MOTION_DOT":-2.61e-6,"MEAN_MOTION_DDOT":0},{"OBJECT_NAME":"SES-4","OBJECT_ID":"2012-007A","EPOCH":"2026-03-29T04:22:14.623680","MEAN_MOTION":1.00271311,"ECCENTRICITY":0.0002226,"INCLINATION":0.031,"RA_OF_ASC_NODE":64.8567,"ARG_OF_PERICENTER":310.0306,"MEAN_ANOMALY":215.2638,"EPHEMERIS_TYPE":0,"CLASSIFICATION_TYPE":"U","NORAD_CAT_ID":38087,"ELEMENT_SET_NO":999,"REV_AT_EPOCH":5142,"BSTAR":0,"MEAN_MOTION_DOT":-1.87e-6,"MEAN_MOTION_DDOT":0},{"OBJECT_NAME":"SES-5","OBJECT_ID":"2012-036A","EPOCH":"2026-03-29T04:29:58.882848","MEAN_MOTION":1.00271352,"ECCENTRICITY":0.0001969,"INCLINATION":0.0635,"RA_OF_ASC_NODE":303.9606,"ARG_OF_PERICENTER":58.773,"MEAN_ANOMALY":256.3156,"EPHEMERIS_TYPE":0,"CLASSIFICATION_TYPE":"U","NORAD_CAT_ID":38652,"ELEMENT_SET_NO":999,"REV_AT_EPOCH":4365,"BSTAR":0,"MEAN_MOTION_DOT":1.4e-7,"MEAN_MOTION_DDOT":0},{"OBJECT_NAME":"ASTRA 2F","OBJECT_ID":"2012-051A","EPOCH":"2026-03-29T02:53:53.098944","MEAN_MOTION":1.00272482,"ECCENTRICITY":0.0001853,"INCLINATION":0.056,"RA_OF_ASC_NODE":251.9381,"ARG_OF_PERICENTER":31.6721,"MEAN_ANOMALY":334.5544,"EPHEMERIS_TYPE":0,"CLASSIFICATION_TYPE":"U","NORAD_CAT_ID":38778,"ELEMENT_SET_NO":999,"REV_AT_EPOCH":4033,"BSTAR":0,"MEAN_MOTION_DOT":1.3e-6,"MEAN_MOTION_DDOT":0},{"OBJECT_NAME":"SES-6","OBJECT_ID":"2013-026A","EPOCH":"2026-03-29T04:17:00.125952","MEAN_MOTION":1.00270446,"ECCENTRICITY":0.0002107,"INCLINATION":0.036,"RA_OF_ASC_NODE":308.3924,"ARG_OF_PERICENTER":78.6749,"MEAN_ANOMALY":183.2472,"EPHEMERIS_TYPE":0,"CLASSIFICATION_TYPE":"U","NORAD_CAT_ID":39172,"ELEMENT_SET_NO":999,"REV_AT_EPOCH":4692,"BSTAR":0,"MEAN_MOTION_DOT":-2.81e-6,"MEAN_MOTION_DDOT":0},{"OBJECT_NAME":"O3B FM5","OBJECT_ID":"2013-031A","EPOCH":"2026-03-28T02:01:35.391360","MEAN_MOTION":5.00116427,"ECCENTRICITY":0.0003249,"INCLINATION":0.1013,"RA_OF_ASC_NODE":7.8394,"ARG_OF_PERICENTER":349.0661,"MEAN_ANOMALY":3.0879,"EPHEMERIS_TYPE":0,"CLASSIFICATION_TYPE":"U","NORAD_CAT_ID":39188,"ELEMENT_SET_NO":999,"REV_AT_EPOCH":23298,"BSTAR":0,"MEAN_MOTION_DOT":-2.9e-7,"MEAN_MOTION_DDOT":0},{"OBJECT_NAME":"O3B FM4","OBJECT_ID":"2013-031B","EPOCH":"2026-03-27T09:41:53.263680","MEAN_MOTION":5.00115128,"ECCENTRICITY":0.0005069,"INCLINATION":0.0535,"RA_OF_ASC_NODE":345.5776,"ARG_OF_PERICENTER":27.4764,"MEAN_ANOMALY":346.9547,"EPHEMERIS_TYPE":0,"CLASSIFICATION_TYPE":"U","NORAD_CAT_ID":39189,"ELEMENT_SET_NO":999,"REV_AT_EPOCH":23295,"BSTAR":0,"MEAN_MOTION_DOT":-2.8e-7,"MEAN_MOTION_DDOT":0},{"OBJECT_NAME":"O3B FM2","OBJECT_ID":"2013-031C","EPOCH":"2026-03-29T01:39:09.345024","MEAN_MOTION":5.00115972,"ECCENTRICITY":0.0002804,"INCLINATION":0.0526,"RA_OF_ASC_NODE":338.9765,"ARG_OF_PERICENTER":26.2407,"MEAN_ANOMALY":354.781,"EPHEMERIS_TYPE":0,"CLASSIFICATION_TYPE":"U","NORAD_CAT_ID":39190,"ELEMENT_SET_NO":999,"REV_AT_EPOCH":23309,"BSTAR":0,"MEAN_MOTION_DOT":-2.9e-7,"MEAN_MOTION_DDOT":0},{"OBJECT_NAME":"O3B PFM","OBJECT_ID":"2013-031D","EPOCH":"2026-03-29T01:59:30.399936","MEAN_MOTION":5.00115152,"ECCENTRICITY":0.0005545,"INCLINATION":0.0691,"RA_OF_ASC_NODE":4.8412,"ARG_OF_PERICENTER":23.4012,"MEAN_ANOMALY":331.783,"EPHEMERIS_TYPE":0,"CLASSIFICATION_TYPE":"U","NORAD_CAT_ID":39191,"ELEMENT_SET_NO":999,"REV_AT_EPOCH":23266,"BSTAR":0,"MEAN_MOTION_DOT":-2.9e-7,"MEAN_MOTION_DDOT":0},{"OBJECT_NAME":"ASTRA 2E","OBJECT_ID":"2013-056A","EPOCH":"2026-03-29T02:54:00.588096","MEAN_MOTION":1.00269,"ECCENTRICITY":0.0002374,"INCLINATION":0.075,"RA_OF_ASC_NODE":33.2488,"ARG_OF_PERICENTER":330.0553,"MEAN_ANOMALY":255.2291,"EPHEMERIS_TYPE":0,"CLASSIFICATION_TYPE":"U","NORAD_CAT_ID":39285,"ELEMENT_SET_NO":999,"REV_AT_EPOCH":4561,"BSTAR":0,"MEAN_MOTION_DOT":1.31e-6,"MEAN_MOTION_DDOT":0},{"OBJECT_NAME":"SES-8","OBJECT_ID":"2013-071A","EPOCH":"2026-03-29T01:30:18.838656","MEAN_MOTION":1.00271616,"ECCENTRICITY":0.0002022,"INCLINATION":0.0212,"RA_OF_ASC_NODE":251.4054,"ARG_OF_PERICENTER":138.6907,"MEAN_ANOMALY":273.9407,"EPHEMERIS_TYPE":0,"CLASSIFICATION_TYPE":"U","NORAD_CAT_ID":39460,"ELEMENT_SET_NO":999,"REV_AT_EPOCH":4363,"BSTAR":0,"MEAN_MOTION_DOT":-2.89e-6,"MEAN_MOTION_DDOT":0},{"OBJECT_NAME":"ASTRA 5B","OBJECT_ID":"2014-011B","EPOCH":"2026-03-29T01:09:50.800032","MEAN_MOTION":1.00269347,"ECCENTRICITY":0.0003625,"INCLINATION":0.0873,"RA_OF_ASC_NODE":299.9338,"ARG_OF_PERICENTER":41.6912,"MEAN_ANOMALY":245.7844,"EPHEMERIS_TYPE":0,"CLASSIFICATION_TYPE":"U","NORAD_CAT_ID":39617,"ELEMENT_SET_NO":999,"REV_AT_EPOCH":4386,"BSTAR":0,"MEAN_MOTION_DOT":1.17e-6,"MEAN_MOTION_DDOT":0},{"OBJECT_NAME":"O3B FM3","OBJECT_ID":"2014-038A","EPOCH":"2026-03-27T08:24:51.210144","MEAN_MOTION":5.00115572,"ECCENTRICITY":8.66e-5,"INCLINATION":0.0529,"RA_OF_ASC_NODE":354.5796,"ARG_OF_PERICENTER":77.5671,"MEAN_ANOMALY":287.8583,"EPHEMERIS_TYPE":0,"CLASSIFICATION_TYPE":"U","NORAD_CAT_ID":40079,"ELEMENT_SET_NO":999,"REV_AT_EPOCH":20895,"BSTAR":0,"MEAN_MOTION_DOT":-2.8e-7,"MEAN_MOTION_DDOT":0},{"OBJECT_NAME":"O3B FM7","OBJECT_ID":"2014-038B","EPOCH":"2026-03-28T21:29:58.200864","MEAN_MOTION":5.00115549,"ECCENTRICITY":0.0004269,"INCLINATION":0.0574,"RA_OF_ASC_NODE":348.2877,"ARG_OF_PERICENTER":7.0561,"MEAN_ANOMALY":4.6475,"EPHEMERIS_TYPE":0,"CLASSIFICATION_TYPE":"U","NORAD_CAT_ID":40080,"ELEMENT_SET_NO":999,"REV_AT_EPOCH":21386,"BSTAR":0,"MEAN_MOTION_DOT":-2.9e-7,"MEAN_MOTION_DDOT":0},{"OBJECT_NAME":"O3B FM6","OBJECT_ID":"2014-038C","EPOCH":"2026-03-29T02:56:41.484768","MEAN_MOTION":5.00115661,"ECCENTRICITY":0.000264,"INCLINATION":0.054,"RA_OF_ASC_NODE":351.7915,"ARG_OF_PERICENTER":13.8749,"MEAN_ANOMALY":354.332,"EPHEMERIS_TYPE":0,"CLASSIFICATION_TYPE":"U","NORAD_CAT_ID":40081,"ELEMENT_SET_NO":999,"REV_AT_EPOCH":21381,"BSTAR":0,"MEAN_MOTION_DOT":-2.9e-7,"MEAN_MOTION_DDOT":0},{"OBJECT_NAME":"O3B FM8","OBJECT_ID":"2014-038D","EPOCH":"2026-03-28T23:25:36.401664","MEAN_MOTION":5.00115967,"ECCENTRICITY":0.0002664,"INCLINATION":0.0547,"RA_OF_ASC_NODE":351.0075,"ARG_OF_PERICENTER":20.1497,"MEAN_ANOMALY":348.8441,"EPHEMERIS_TYPE":0,"CLASSIFICATION_TYPE":"U","NORAD_CAT_ID":40082,"ELEMENT_SET_NO":999,"REV_AT_EPOCH":21393,"BSTAR":0,"MEAN_MOTION_DOT":-2.9e-7,"MEAN_MOTION_DDOT":0}]
